SKYSAT-C4               
1 41771U 16058B   26177.95932674  .00017417  00000+0  32447-3 0  9990
2 41771  96.9173 199.3227 0002110 140.0386 220.1021 15.48886326546987
SKYSAT-C5               
1 41772U 16058C   26177.68967433  .00007468  00000+0  22498-3 0  9992
2 41772  97.0469 217.9060 0001210 220.2430 139.8725 15.34598255545208
SKYSAT-C2               
1 41773U 16058D   26177.79767239  .00012805  00000+0  29931-3 0  9997
2 41773  97.0166 199.5314 0003810  49.7628 310.3953 15.42281363546535
SKYSAT-C3               
1 41774U 16058E   26176.58591494  .00026959  00000+0  43484-3 0  9996
2 41774  96.9009 207.1097 0001258 117.9292 242.2090 15.52881901547411
SKYSAT-C11              
1 42987U 17068A   26177.94752261  .00030201  00000+0  39792-3 0  9999
2 42987  97.4353 327.2064 0000442 133.1203 227.0090 15.58388831484769
SKYSAT-C10              
1 42988U 17068B   26177.94210261  .00009599  00000+0  28690-3 0  9990
2 42988  97.4508 314.8852 0001171 105.0167 255.1206 15.34795431483858
SKYSAT-C9               
1 42989U 17068C   26177.91010445  .00013729  00000+0  32569-3 0  9990
2 42989  97.4431 315.8812 0009551 102.7101 257.5214 15.41793765484259
SKYSAT-C8               
1 42990U 17068D   26177.89856149  .00010534  00000+0  29177-3 0  9990
2 42990  97.4528 314.6783 0001338  94.5983 265.5414 15.37158309483808
SKYSAT-C7               
1 42991U 17068E   26177.95758425  .00010925  00000+0  30275-3 0  9991
2 42991  97.4536 315.7284 0007024  77.9411 282.2620 15.37112392483879
SKYSAT-C6               
1 42992U 17068F   26177.93033072  .00009852  00000+0  30057-3 0  9999
2 42992  97.4573 315.6327 0005185 124.2798 235.8936 15.34124782483819
